[{"OBJECT_NAME":"OBJECT D","OBJECT_ID":"2024-173D","EPOCH":"2026-03-09T23:30:29.956896","MEAN_MOTION":15.27005733,"ECCENTRICITY":0.00090093,"INCLINATION":97.3606,"RA_OF_ASC_NODE":149.3901,"ARG_OF_PERICENTER":241.6081,"MEAN_ANOMALY":118.425,"EPHEMERIS_TYPE":0,"CLASSIFICATION_TYPE":"U","NORAD_CAT_ID":61230,"ELEMENT_SET_NO":999,"REV_AT_EPOCH":8130,"BSTAR":0.00072064626,"MEAN_MOTION_DOT":0.00019078,"MEAN_MOTION_DDOT":0},{"OBJECT_NAME":"STARLINK-32663","OBJECT_ID":"2024-229F","EPOCH":"2026-03-09T22:15:10.383264","MEAN_MOTION":15.27604752,"ECCENTRICITY":0.0001419,"INCLINATION":43.0011,"RA_OF_ASC_NODE":269.7238,"ARG_OF_PERICENTER":304.4278,"MEAN_ANOMALY":55.644,"EPHEMERIS_TYPE":0,"CLASSIFICATION_TYPE":"U","NORAD_CAT_ID":62197,"ELEMENT_SET_NO":999,"REV_AT_EPOCH":7059,"BSTAR":0.0010258125,"MEAN_MOTION_DOT":0.00028095,"MEAN_MOTION_DDOT":0}]
